NORAD_CAT_ID,OBJECT_NAME,OBJECT_TYPE,EPOCH,MEAN_MOTION,ECCENTRICITY,INCLINATION,RA_OF_ASC_NODE,ARG_OF_PERICENTER,MEAN_ANOMALY,BSTAR,MEAN_MOTION_DOT,MEAN_MOTION_DDOT,TLE_LINE0,TLE_LINE1,TLE_LINE2,SEMIMAJOR_AXIS,PERIOD,APOGEE,PERIGEE,DECAYED
53156.0,STARLINK-4087,PAYLOAD,2023-08-28 14:19:52,15.08842649,0.0001187,53.2192,352.41,81.5807,278.532,1.3807e-05,-6.8e-07,0.0,0 STARLINK-4087,1 53156U 22083AA  23240.59713106 -.00000068  00000-0  13807-4 0  9996,2 53156  53.2192 352.4100 0001187  81.5807 278.5320 15.08842649 62489,6917.872,95.437,540.558,538.916,0.0
53156.0,STARLINK-4087,PAYLOAD,2023-08-28 19:06:01,15.0884849,0.0001225,53.2189,351.5127,99.2917,260.8214,7.8198e-05,9.57e-06,0.0,0 STARLINK-4087,1 53156U 22083AA  23240.79584695  .00000957  00000-0  78198-4 0  9997,2 53156  53.2189 351.5127 0001225  99.2917 260.8214 15.08848490 62515,6917.854,95.437,540.567,538.872,0.0
53156.0,STARLINK-4087,PAYLOAD,2023-08-29 18:56:47,15.08856116,0.0001237,53.2191,347.0533,91.4215,268.6918,0.00010454,1.377e-05,0.0,0 STARLINK-4087,1 53156U 22083AA  23241.78943825  .00001377  00000-0  10454-3 0  9998,2 53156  53.2191 347.0533 0001237  91.4215 268.6918 15.08856116 62035,6917.831,95.437,540.552,538.84,0.0
53156.0,STARLINK-4087,PAYLOAD,2023-08-29 23:42:58,15.08836583,0.0001187,53.2193,346.1626,86.3635,273.7492,-6.9051e-05,-1.386e-05,0.0,0 STARLINK-4087,1 53156U 22083AA  23241.98817535 -.00001386  00000-0 -69051-4 0  9998,2 53156  53.2193 346.1626 0001187  86.3635 273.7492 15.08836583 62695,6917.891,95.438,540.577,538.935,0.0
53156.0,STARLINK-4087,PAYLOAD,2023-08-30 17:12:12,15.08839312,0.0001276,53.2195,342.8915,87.9236,272.1902,3.8546e-05,3.26e-06,0.0,0 STARLINK-4087,1 53156U 22083AA  23242.71681459  .00000326  00000-0  38546-4 0  9990,2 53156  53.2195 342.8915 0001276  87.9236 272.1902 15.08839312 62179,6917.882,95.438,540.63,538.865,0.0
53156.0,STARLINK-4087,PAYLOAD,2023-08-31 18:38:22,15.08844058,0.0001087,53.219,338.1335,80.1318,279.9797,2.4111e-05,9.6e-07,0.0,0 STARLINK-4087,1 53156U 22083AA  23243.77665171  .00000096  00000-0  24111-4 0  9997,2 53156  53.2190 338.1335 0001087  80.1318 279.9797 15.08844058 62332,6917.868,95.437,540.485,538.981,0.0
53156.0,STARLINK-4087,PAYLOAD,2023-09-01 18:29:12,15.08802825,0.0002497,53.2181,333.6765,74.2017,285.925,-0.00013416,-2.421e-05,0.0,0 STARLINK-4087,1 53156U 22083AA  23244.77028759 -.00002421  00000-0 -13416-3 0  9994,2 53156  53.2181 333.6765 0002497  74.2017 285.9250 15.08802825 63119,6917.994,95.44,541.586,538.132,0.0
53156.0,STARLINK-4087,PAYLOAD,2023-09-02 05:36:51,15.08846373,0.0002369,53.2133,331.5915,81.8003,278.3258,8.9134e-05,1.131e-05,0.0,0 STARLINK-4087,1 53156U 22083AA  23245.23393335  .00001131  00000-0  89134-4 0  9997,2 53156  53.2133 331.5915 0002369  81.8003 278.3258 15.08846373 63184,6917.861,95.437,541.365,538.087,0.0
53156.0,STARLINK-4087,PAYLOAD,2023-09-02 11:58:24,15.08840956,0.0001431,53.2169,330.4028,74.3441,285.7709,5.2844e-05,5.53e-06,0.0,0 STARLINK-4087,1 53156U 22083AA  23245.49889515  .00000553  00000-0  52844-4 0  9990,2 53156  53.2169 330.4028 0001431  74.3441 285.7709 15.08840956 62596,6917.877,95.437,540.732,538.753,0.0
53156.0,STARLINK-4087,PAYLOAD,2023-09-02 23:06:05,15.08850063,0.0001482,53.218,328.3196,82.6305,277.4856,0.00011987,1.621e-05,0.0,0 STARLINK-4087,1 53156U 22083AA  23245.96256658  .00001621  00000-0  11987-3 0  9997,2 53156  53.2180 328.3196 0001482  82.6305 277.4856 15.08850063 63297,6917.85,95.437,540.74,538.689,0.0
53156.0,STARLINK-4087,PAYLOAD,2023-09-03 11:49:10,15.08864566,0.0001467,53.2181,325.9413,79.1467,280.969,-9.4684e-05,-1.796e-05,0.0,0 STARLINK-4087,1 53156U 22083AA  23246.49248322 -.00001796  00000-0 -94684-4 0  9996,2 53156  53.2181 325.9413 0001467  79.1467 280.9690 15.08864566 62743,6917.805,95.436,540.685,538.655,0.0
53156.0,STARLINK-4087,PAYLOAD,2023-09-03 22:56:53,15.08827751,0.0001199,53.2179,323.8603,82.7967,277.3161,-4.1648e-05,-9.5e-06,0.0,0 STARLINK-4087,1 53156U 22083AA  23246.95618002 -.00000950  00000-0 -41648-4 0  9996,2 53156  53.2179 323.8603 0001199  82.7967 277.3161 15.08827751 63441,6917.918,95.438,540.612,538.953,0.0
53156.0,STARLINK-4087,PAYLOAD,2023-09-04 08:29:14,15.08817361,0.0001407,53.2178,322.0747,94.9183,265.197,-0.0001626,-2.873e-05,0.0,0 STARLINK-4087,1 53156U 22083AA  23247.35363546 -.00002873  00000-0 -16260-3 0  9998,2 53156  53.2178 322.0747 0001407  94.9183 265.1970 15.08817361 63503,6917.95,95.439,540.788,538.841,0.0
53156.0,STARLINK-4087,PAYLOAD,2023-09-04 11:40:00,15.08817214,0.0001355,53.2173,321.4813,91.5843,268.5304,-0.0001593,-2.821e-05,0.0,0 STARLINK-4087,1 53156U 22083AA  23247.48611638 -.00002821  00000-0 -15930-3 0  9996,2 53156  53.2173 321.4813 0001355  91.5843 268.5304 15.08817214 62899,6917.95,95.439,540.752,538.878,0.0
53156.0,STARLINK-4087,PAYLOAD,2023-09-05 09:55:24,15.08829698,0.0001318,53.2175,317.318,92.1788,267.9355,2.7537e-06,-2.44e-06,0.0,0 STARLINK-4087,1 53156U 22083AA  23248.41347455 -.00000244  00000-0  27537-5 0  9997,2 53156  53.2175 317.3180 0001318  92.1788 267.9355 15.08829698 63660,6917.912,95.438,540.689,538.865,0.0
53156.0,STARLINK-4087,PAYLOAD,2023-09-06 16:07:43,15.08848184,0.0001285,53.217,311.6669,93.9778,266.1361,0.00047658,7.307e-05,0.0,0 STARLINK-4087,1 53156U 22083AA  23249.67203023  .00007307  00000-0  47658-3 0  9998,2 53156  53.2170 311.6669 0001285  93.9778 266.1361 15.08848184 63855,6917.855,95.437,540.609,538.831,0.0
53156.0,STARLINK-4087,PAYLOAD,2023-09-06 20:53:53,15.0884083,0.0001312,53.2175,310.7744,93.4469,266.6673,0.00026084,3.866e-05,0.0,0 STARLINK-4087,1 53156U 22083AA  23249.87075240  .00003866  00000-0  26084-3 0  9994,2 53156  53.2175 310.7744 0001312  93.4469 266.6673 15.08840830 63252,6917.878,95.438,540.65,538.835,0.0
53156.0,STARLINK-4087,PAYLOAD,2023-09-07 12:47:43,15.08855533,0.0001225,53.2175,307.8023,97.7566,262.3565,0.00014105,1.959e-05,0.0,0 STARLINK-4087,1 53156U 22083AA  23250.53314141  .00001959  00000-0  14105-3 0  9997,2 53156  53.2175 307.8023 0001225  97.7566 262.3565 15.08855533 63357,6917.833,95.437,540.545,538.85,0.0
53156.0,STARLINK-4087,PAYLOAD,2023-09-07 17:33:52,15.08859517,0.0001214,53.2174,306.9101,96.9304,263.1827,0.00017441,2.49e-05,0.0,0 STARLINK-4087,1 53156U 22083AA  23250.73185682  .00002490  00000-0  17441-3 0  9992,2 53156  53.2174 306.9101 0001214  96.9304 263.1827 15.08859517 64012,6917.821,95.436,540.526,538.846,0.0
53156.0,STARLINK-4087,PAYLOAD,2023-09-07 19:09:17,15.08837223,0.0001288,53.2174,306.6129,83.0762,277.0377,-1.4854e-05,-5.24e-06,0.0,0 STARLINK-4087,1 53156U 22083AA  23250.79811577 -.00000524  00000-0 -14854-4 0  9991,2 53156  53.2174 306.6129 0001288  83.0762 277.0377 15.08837223 63399,6917.889,95.438,540.645,538.863,0.0
53156.0,STARLINK-4087,PAYLOAD,2023-09-08 03:06:12,15.08837485,0.0001228,53.2166,305.126,85.764,274.3493,2.529e-05,1.15e-06,0.0,0 STARLINK-4087,1 53156U 22083AA  23251.12930762  .00000115  00000-0  25290-4 0  9997,2 53156  53.2166 305.1260 0001228  85.7640 274.3493 15.08837485 64073,6917.888,95.438,540.603,538.904,0.0
53156.0,STARLINK-4087,PAYLOAD,2023-09-08 11:03:07,15.08846383,0.0001248,53.2164,303.6392,89.0589,271.0546,0.00017079,2.432e-05,0.0,0 STARLINK-4087,1 53156U 22083AA  23251.46050299  .00002432  00000-0  17079-3 0  9991,2 53156  53.2164 303.6392 0001248  89.0589 271.0546 15.08846383 64127,6917.861,95.437,540.589,538.863,0.0
53156.0,STARLINK-4087,PAYLOAD,2023-09-08 12:38:30,15.08846573,0.0001247,53.2163,303.3419,86.3052,273.8082,0.00020239,2.935e-05,0.0,0 STARLINK-4087,1 53156U 22083AA  23251.52674242  .00002935  00000-0  20239-3 0  9998,2 53156  53.2163 303.3419 0001247  86.3052 273.8082 15.08846573 63504,6917.86,95.437,540.588,538.863,0.0
53156.0,STARLINK-4087,PAYLOAD,2023-09-08 15:49:16,15.08847334,0.0001245,53.2161,302.7472,91.5098,268.6036,0.00042557,6.493e-05,0.0,0 STARLINK-4087,1 53156U 22083AA  23251.65922190  .00006493  00000-0  42557-3 0  9990,2 53156  53.2161 302.7472 0001245  91.5098 268.6036 15.08847334 63529,6917.858,95.437,540.584,538.862,0.0
53156.0,STARLINK-4087,PAYLOAD,2023-09-09 02:56:59,15.08839028,0.0001275,53.2159,300.6658,83.5558,276.5579,0.00048064,7.37e-05,0.0,0 STARLINK-4087,1 53156U 22083AA  23252.12290659  .00007370  00000-0  48064-3 0  9995,2 53156  53.2159 300.6658 0001275  83.5558 276.5579 15.08839028 64223,6917.883,95.438,540.63,538.866,0.0
53156.0,STARLINK-4087,PAYLOAD,2023-09-09 14:04:40,15.08848504,0.0001328,53.2158,298.5844,81.4338,278.6805,0.00067117,0.00010412,0.0,0 STARLINK-4087,1 53156U 22083AA  23252.58658548  .00010412  00000-0  67117-3 0  9991,2 53156  53.2158 298.5844 0001328  81.4338 278.6805 15.08848504 63667,6917.854,95.437,540.638,538.801,0.0
53156.0,STARLINK-4087,PAYLOAD,2023-09-10 09:09:18,15.08848718,0.0001372,53.2159,295.0163,82.4799,277.6349,0.00036059,5.457e-05,0.0,0 STARLINK-4087,1 53156U 22083AA  23253.38146474  .00005457  00000-0  36059-3 0  9994,2 53156  53.2159 295.0163 0001372  82.4799 277.6349 15.08848718 64418,6917.854,95.437,540.668,538.77,0.0
53156.0,STARLINK-4087,PAYLOAD,2023-09-11 02:38:33,15.08841126,0.0001476,53.2156,291.745,84.0871,276.029,0.00012325,1.674e-05,0.0,0 STARLINK-4087,1 53156U 22083AA  23254.11010680  .00001674  00000-0  12325-3 0  9992,2 53156  53.2156 291.7450 0001476  84.0871 276.0290 15.08841126 64527,6917.877,95.437,540.763,538.721,0.0
53156.0,STARLINK-4087,PAYLOAD,2023-09-11 12:10:51,15.08846422,0.0001323,53.2157,289.9607,87.5729,272.5415,0.00025592,3.788e-05,0.0,0 STARLINK-4087,1 53156U 22083AA  23254.50754546  .00003788  00000-0  25592-3 0  9999,2 53156  53.2157 289.9607 0001323  87.5729 272.5415 15.08846422 63952,6917.861,95.437,540.641,538.811,0.0
53156.0,STARLINK-4087,PAYLOAD,2023-09-12 07:15:29,15.08847216,0.0001433,53.2159,286.3925,93.1717,266.9439,0.00023152,3.399e-05,0.0,0 STARLINK-4087,1 53156U 22083AA  23255.30242460  .00003399  00000-0  23152-3 0  9993,2 53156  53.2159 286.3925 0001433  93.1717 266.9439 15.08847216 64709,6917.858,95.437,540.715,538.732,0.0
